NORAD_CAT_ID,OBJECT_NAME,OBJECT_TYPE,EPOCH,MEAN_MOTION,ECCENTRICITY,INCLINATION,RA_OF_ASC_NODE,ARG_OF_PERICENTER,MEAN_ANOMALY,BSTAR,MEAN_MOTION_DOT,MEAN_MOTION_DDOT,TLE_LINE0,TLE_LINE1,TLE_LINE2,SEMIMAJOR_AXIS,PERIOD,APOGEE,PERIGEE,DECAYED
54092.0,STARLINK-5190,PAYLOAD,2023-01-30 09:17:19,15.08859346,0.0001265,53.2174,26.1454,88.3368,271.7769,0.000276,4.11e-05,0.0,0 STARLINK-5190,1 54092U 22136AT  23030.38703100  .00004110  00000-0  27600-3 0  9998,2 54092  53.2174  26.1454 0001265  88.3368 271.7769 15.08859346 16214,6917.821,95.436,540.561,538.811,0.0
54092.0,STARLINK-5190,PAYLOAD,2023-01-30 23:35:49,15.08827017,0.0001234,53.2183,23.4706,72.0629,288.0498,0.00040374,6.141e-05,0.0,0 STARLINK-5190,1 54092U 22136AT  23030.98320830  .00006141  00000-0  40374-3 0  9998,2 54092  53.2183  23.4706 0001234  72.0629 288.0498 15.08827017 16300,6917.92,95.438,540.639,538.931,0.0
54092.0,STARLINK-5190,PAYLOAD,2023-01-31 09:08:07,15.08834096,0.0001412,53.2176,21.6856,84.3944,275.7209,0.00040243,6.121e-05,0.0,0 STARLINK-5190,1 54092U 22136AT  23031.38064609  .00006121  00000-0  40243-3 0  9995,2 54092  53.2176  21.6856 0001412  84.3944 275.7209 15.08834096 15893,6917.898,95.438,540.74,538.787,0.0
54092.0,STARLINK-5190,PAYLOAD,2023-02-01 02:37:21,15.08856654,0.0001405,53.2168,18.4142,90.2111,269.9043,-0.00010353,-1.936e-05,0.0,0 STARLINK-5190,1 54092U 22136AT  23032.10927795 -.00001936  00000-0 -10353-3 0  9990,2 54092  53.2168  18.4142 0001405  90.2111 269.9043 15.08856654 16470,6917.829,95.437,540.666,538.723,0.0
54092.0,STARLINK-5190,PAYLOAD,2023-02-01 08:58:53,15.08862196,0.0001324,53.2177,17.2257,82.9051,277.2092,-7.6976e-05,-1.514e-05,0.0,0 STARLINK-5190,1 54092U 22136AT  23032.37423024 -.00001514  00000-0 -76976-4 0  9991,2 54092  53.2177  17.2257 0001324  82.9051 277.2092 15.08862196 16042,6917.813,95.436,540.593,538.762,0.0
54092.0,STARLINK-5190,PAYLOAD,2023-02-02 02:28:09,15.08837081,0.0001329,53.2184,13.954,78.5728,281.5413,-4.7219e-05,-1.039e-05,0.0,0 STARLINK-5190,1 54092U 22136AT  23033.10288463 -.00001039  00000-0 -47219-4 0  9999,2 54092  53.2184  13.9540 0001329  78.5728 281.5413 15.08837081 16629,6917.889,95.438,540.674,538.835,0.0
54092.0,STARLINK-5190,PAYLOAD,2023-02-02 05:38:54,15.08843481,0.0001362,53.2171,13.3589,90.4638,269.651,2.0593e-05,4e-07,0.0,0 STARLINK-5190,1 54092U 22136AT  23033.23535872  .00000040  00000-0  20593-4 0  9997,2 54092  53.2171  13.3589 0001362  90.4638 269.6510 15.08843481 16178,6917.87,95.437,540.677,538.793,0.0
54092.0,STARLINK-5190,PAYLOAD,2023-02-03 07:05:04,15.08846955,0.0001301,53.2192,8.6038,92.2101,267.904,0.00010189,1.334e-05,0.0,0 STARLINK-5190,1 54092U 22136AT  23034.29519561  .00001334  00000-0  10189-3 0  9997,2 54092  53.2192   8.6038 0001301  92.2101 267.9040 15.08846955 16803,6917.859,95.437,540.624,538.824,0.0
54092.0,STARLINK-5190,PAYLOAD,2023-02-04 03:45:06,15.0883698,0.0001309,53.2196,4.7388,99.5374,260.5766,6.1425e-05,6.9e-06,0.0,0 STARLINK-5190,1 54092U 22136AT  23035.15632492  .00000690  00000-0  61425-4 0  9996,2 54092  53.2196   4.7388 0001309  99.5374 260.5766 15.08836980 16937,6917.89,95.438,540.66,538.849,0.0
54092.0,STARLINK-5190,PAYLOAD,2023-02-04 06:55:52,15.08843104,0.0001423,53.2189,4.1438,94.3569,265.7585,0.00010655,1.408e-05,0.0,0 STARLINK-5190,1 54092U 22136AT  23035.28879989  .00001408  00000-0  10655-3 0  9990,2 54092  53.2189   4.1438 0001423  94.3569 265.7585 15.08843104 16959,6917.871,95.437,540.72,538.751,0.0
54092.0,STARLINK-5190,PAYLOAD,2023-02-05 06:46:39,15.08847531,0.0001235,53.2185,359.6797,101.9411,258.172,5.5832e-05,6.01e-06,0.0,0 STARLINK-5190,1 54092U 22136AT  23036.28239785  .00000601  00000-0  55832-4 0  9996,2 54092  53.2185 359.6797 0001235 101.9411 258.1720 15.08847531 16633,6917.857,95.437,540.577,538.868,0.0
54092.0,STARLINK-5190,PAYLOAD,2023-02-06 03:26:40,15.08840755,0.0001203,53.2181,355.8136,104.5733,255.5393,1.6612e-05,-2.3e-07,0.0,0 STARLINK-5190,1 54092U 22136AT  23037.14352403 -.00000023  00000-0  16612-4 0  9997,2 54092  53.2181 355.8136 0001203 104.5733 255.5393 15.08840755 17230,6917.878,95.438,540.575,538.911,0.0
54092.0,STARLINK-5190,PAYLOAD,2023-02-06 06:37:26,15.08850325,0.0001279,53.2192,355.2172,104.5038,255.6096,8.7656e-05,1.108e-05,0.0,0 STARLINK-5190,1 54092U 22136AT  23037.27599601  .00001108  00000-0  87656-4 0  9994,2 54092  53.2192 355.2172 0001279 104.5038 255.6096 15.08850325 17254,6917.849,95.437,540.599,538.829,0.0
54092.0,STARLINK-5190,PAYLOAD,2023-02-07 03:17:26,15.08852227,0.0001487,53.2194,351.3556,85.5203,274.5959,0.00013137,1.804e-05,0.0,0 STARLINK-5190,1 54092U 22136AT  23038.13711514  .00001804  00000-0  13137-3 0  9994,2 54092  53.2194 351.3556 0001487  85.5203 274.5959 15.08852227 16915,6917.843,95.437,540.737,538.679,0.0
54092.0,STARLINK-5190,PAYLOAD,2023-02-07 20:46:41,15.08846848,0.000139,53.2183,348.0806,115.6601,244.4535,6.994e-05,8.26e-06,0.0,0 STARLINK-5190,1 54092U 22136AT  23038.86575675  .00000826  00000-0  69940-4 0  9997,2 54092  53.2183 348.0806 0001390 115.6601 244.4535 15.08846848 17025,6917.859,95.437,540.686,538.763,0.0
54092.0,STARLINK-5190,PAYLOAD,2023-02-08 06:18:59,15.08855732,0.0001355,53.2168,346.2986,99.762,260.3525,0.00019726,2.854e-05,0.0,0 STARLINK-5190,1 54092U 22136AT  23039.26319077  .00002854  00000-0  19726-3 0  9993,2 54092  53.2168 346.2986 0001355  99.7620 260.3525 15.08855732 17557,6917.832,95.437,540.635,538.76,0.0
54092.0,STARLINK-5190,PAYLOAD,2023-02-09 02:59:00,15.0884861,9e-05,53.2178,342.4347,90.8304,269.2792,2.567e-05,1.21e-06,0.0,0 STARLINK-5190,1 54092U 22136AT  23040.12431572  .00000121  00000-0  25670-4 0  9996,2 54092  53.2178 342.4347 0000900  90.8304 269.2792 15.08848610 17688,6917.854,95.437,540.342,539.096,0.0
54092.0,STARLINK-5190,PAYLOAD,2023-02-09 06:09:47,15.08846452,0.0001014,53.2176,341.8392,87.1349,272.9759,0.00013886,1.923e-05,0.0,0 STARLINK-5190,1 54092U 22136AT  23040.25679646  .00001923  00000-0  13886-3 0  9992,2 54092  53.2176 341.8392 0001014  87.1349 272.9759 15.08846452 17231,6917.861,95.437,540.427,539.024,0.0
54092.0,STARLINK-5190,PAYLOAD,2023-02-10 02:49:48,15.08848596,9.16e-05,53.2185,337.9734,67.4464,292.6625,0.00034534,5.214e-05,0.0,0 STARLINK-5190,1 54092U 22136AT  23041.11792105  .00005214  00000-0  34534-3 0  9994,2 54092  53.2185 337.9734 0000916  67.4464 292.6625 15.08848596 17362,6917.854,95.437,540.353,539.085,0.0
54092.0,STARLINK-5190,PAYLOAD,2023-02-10 12:22:07,15.0884584,9.2e-05,53.218,336.1907,65.1124,294.9963,0.00052072,8.01e-05,0.0,0 STARLINK-5190,1 54092U 22136AT  23041.51536351  .00008010  00000-0  52072-3 0  9991,2 54092  53.2180 336.1907 0000920  65.1124 294.9963 15.08845840 17890,6917.863,95.437,540.364,539.091,0.0
54092.0,STARLINK-5190,PAYLOAD,2023-02-11 02:40:35,15.08848866,0.0001,53.218,333.5149,60.7647,299.3445,0.00020457,2.97e-05,0.0,0 STARLINK-5190,1 54092U 22136AT  23042.11152135  .00002970  00000-0  20457-3 0  9993,2 54092  53.2180 333.5149 0001000  60.7647 299.3445 15.08848866 17985,6917.853,95.437,540.41,539.027,0.0
54092.0,STARLINK-5190,PAYLOAD,2023-02-11 18:34:26,15.08841753,0.0001082,53.2165,330.5416,68.5949,291.5159,0.00014186,1.971e-05,0.0,0 STARLINK-5190,1 54092U 22136AT  23042.77392315  .00001971  00000-0  14186-3 0  9993,2 54092  53.2165 330.5416 0001082  68.5949 291.5159 15.08841753 18089,6917.875,95.437,540.489,538.992,0.0
54092.0,STARLINK-5190,PAYLOAD,2023-02-11 20:09:49,15.08844486,0.0001041,53.218,330.2441,50.7579,309.3505,-3.0276e-06,-3.36e-06,0.0,0 STARLINK-5190,1 54092U 22136AT  23042.84016159 -.00000336  00000-0 -30276-5 0  9996,2 54092  53.2180 330.2441 0001041  50.7579 309.3505 15.08844486 17626,6917.867,95.437,540.452,539.012,0.0
54092.0,STARLINK-5190,PAYLOAD,2023-02-12 04:06:45,15.08857571,0.0001021,53.217,328.7557,65.2844,294.8254,0.00037316,5.659e-05,0.0,0 STARLINK-5190,1 54092U 22136AT  23043.17135659  .00005659  00000-0  37316-3 0  9991,2 54092  53.2170 328.7557 0001021  65.2844 294.8254 15.08857571 18145,6917.827,95.436,540.398,538.985,0.0
54092.0,STARLINK-5190,PAYLOAD,2023-02-12 12:03:42,15.08824731,0.0002319,53.2179,327.2711,63.0871,297.0358,-0.00028719,-4.854e-05,0.0,0 STARLINK-5190,1 54092U 22136AT  23043.50257122 -.00004854  00000-0 -28719-3 0  9993,2 54092  53.2179 327.2711 0002319  63.0871 297.0358 15.08824731 17722,6917.927,95.439,541.396,538.188,0.0
54092.0,STARLINK-5190,PAYLOAD,2023-02-12 18:25:14,15.08827375,0.0002055,53.2179,326.0817,58.8311,301.2883,-0.00010766,-2.001e-05,0.0,0 STARLINK-5190,1 54092U 22136AT  23043.76753330 -.00002001  00000-0 -10766-3 0  9998,2 54092  53.2179 326.0817 0002055  58.8311 301.2883 15.08827375 18239,6917.919,95.438,541.206,538.362,0.0
54092.0,STARLINK-5190,PAYLOAD,2023-02-13 11:54:29,15.08834477,0.0001372,53.2171,322.8099,50.3865,309.7248,0.00016184,2.288e-05,0.0,0 STARLINK-5190,1 54092U 22136AT  23044.49617456  .00002288  00000-0  16184-3 0  9992,2 54092  53.2171 322.8099 0001372  50.3865 309.7248 15.08834477 17877,6917.897,95.438,540.711,538.813,0.0
54092.0,STARLINK-5190,PAYLOAD,2023-02-14 00:37:34,15.08852951,0.000119,53.2173,320.4294,65.1102,295.0014,0.00047642,7.305e-05,0.0,0 STARLINK-5190,1 54092U 22136AT  23045.02608935  .00007305  00000-0  47642-3 0  9992,2 54092  53.2173 320.4294 0001190  65.1102 295.0014 15.08852951 18423,6917.841,95.437,540.529,538.883,0.0
54092.0,STARLINK-5190,PAYLOAD,2023-02-14 11:45:16,15.0884158,0.0001063,53.2172,318.3487,65.7106,294.3997,0.00023092,3.389e-05,0.0,0 STARLINK-5190,1 54092U 22136AT  23045.48977336  .00003389  00000-0  23092-3 0  9997,2 54092  53.2172 318.3487 0001063  65.7106 294.3997 15.08841580 18496,6917.876,95.437,540.476,539.005,0.0
54092.0,STARLINK-5190,PAYLOAD,2023-02-15 02:03:44,15.08844601,0.0001364,53.2161,315.6714,78.2016,281.9129,0.00022352,3.272e-05,0.0,0 STARLINK-5190,1 54092U 22136AT  23046.08593413  .00003272  00000-0  22352-3 0  9993,2 54092  53.2161 315.6714 0001364  78.2016 281.9129 15.08844601 18115,6917.866,95.437,540.675,538.788,0.0
